[{"OBJECT_NAME":"STARLINK-4572","OBJECT_ID":"2022-105AW","EPOCH":"2026-03-09T16:09:10.695744","MEAN_MOTION":15.21020685,"ECCENTRICITY":0.00018422,"INCLINATION":97.6182,"RA_OF_ASC_NODE":315.6347,"ARG_OF_PERICENTER":18.3505,"MEAN_ANOMALY":341.7796,"EPHEMERIS_TYPE":0,"CLASSIFICATION_TYPE":"U","NORAD_CAT_ID":53692,"ELEMENT_SET_NO":999,"REV_AT_EPOCH":19355,"BSTAR":0.00056421038,"MEAN_MOTION_DOT":0.00012459,"MEAN_MOTION_DDOT":0},{"OBJECT_NAME":"SUPERVIEW NEO-3 01","OBJECT_ID":"2024-072A","EPOCH":"2026-03-09T22:59:09.446208","MEAN_MOTION":15.23128449,"ECCENTRICITY":0.00029396,"INCLINATION":97.4184,"RA_OF_ASC_NODE":150.1524,"ARG_OF_PERICENTER":104.5976,"MEAN_ANOMALY":255.5587,"EPHEMERIS_TYPE":0,"CLASSIFICATION_TYPE":"U","NORAD_CAT_ID":59510,"ELEMENT_SET_NO":999,"REV_AT_EPOCH":10559,"BSTAR":0.00057697543,"MEAN_MOTION_DOT":0.00013563,"MEAN_MOTION_DDOT":0}]
